{"type":"FeatureCollection","features":[
  {"type":"Feature","properties":{"name":"貝加爾湖","source":"Natural Earth 公開領域湖泊資料參考後之教學概略化"},"geometry":{"type":"Polygon","coordinates":[[[103.8,51.5],[106,51.4],[110,55.5],[109,56.2],[106,54.5],[103.8,51.5]]]}},
  {"type":"Feature","properties":{"name":"裏海","source":"Natural Earth 公開領域湖泊資料參考後之教學概略化"},"geometry":{"type":"Polygon","coordinates":[[[47,47],[51,47],[54,42],[53,36.5],[49,37],[47,42],[47,47]]]}},
  {"type":"Feature","properties":{"name":"死海","source":"公開地理資料參考後之教學概略化"},"geometry":{"type":"Polygon","coordinates":[[[35.35,31.8],[35.55,31.75],[35.58,31.1],[35.4,31.0],[35.35,31.8]]]}}
]}
